NORAD_CAT_ID,OBJECT_NAME,OBJECT_TYPE,EPOCH,MEAN_MOTION,ECCENTRICITY,INCLINATION,RA_OF_ASC_NODE,ARG_OF_PERICENTER,MEAN_ANOMALY,BSTAR,MEAN_MOTION_DOT,MEAN_MOTION_DDOT,TLE_LINE0,TLE_LINE1,TLE_LINE2,SEMIMAJOR_AXIS,PERIOD,APOGEE,PERIGEE,DECAYED
53268.0,STARLINK-4109,PAYLOAD,2022-12-12 17:44:28,15.08840701,0.0001649,53.2169,104.583,54.6233,305.4913,4.6117e-05,4.46e-06,0.0,0 STARLINK-4109,1 53268U 22086AC  22346.73921318  .00000446  00000-0  46117-4 0  9990,2 53268  53.2169 104.5830 0001649  54.6233 305.4913 15.08840701 22302,6917.878000000002,95.438,540.884,538.602,0.0
53268.0,STARLINK-4109,PAYLOAD,2022-12-12 19:19:51,15.08843093,0.0001584,53.217,104.2856,55.1846,304.9295,8.732e-05,1.102e-05,0.0,0 STARLINK-4109,1 53268U 22086AC  22346.80545271  .00001102  00000-0  87320-4 0  9999,2 53268  53.2170 104.2856 0001584  55.1846 304.9295 15.08843093 22497,6917.871,95.437,540.832,538.64,0.0
53268.0,STARLINK-4109,PAYLOAD,2022-12-13 14:24:28,15.08842989,0.0001583,53.2172,100.7173,57.1571,302.9573,5.0087e-05,5.09e-06,0.0,0 STARLINK-4109,1 53268U 22086AC  22347.60033185  .00000509  00000-0  50087-4 0  9994,2 53268  53.2172 100.7173 0001583  57.1571 302.9573 15.08842989 22612,6917.871,95.437,540.831,538.641,0.0
53268.0,STARLINK-4109,PAYLOAD,2022-12-13 19:10:37,15.08848333,0.000159,53.2173,99.8252,56.8997,303.2147,0.0001651,2.341e-05,0.0,0 STARLINK-4109,1 53268U 22086AC  22347.79904917  .00002341  00000-0  16510-3 0  9992,2 53268  53.2173  99.8252 0001590  56.8997 303.2147 15.08848333 22648,6917.855,95.437,540.82,538.62,0.0
53268.0,STARLINK-4109,PAYLOAD,2022-12-14 12:39:52,15.08848317,0.0001528,53.2172,96.5541,56.6514,303.4625,0.00014965,2.095e-05,0.0,0 STARLINK-4109,1 53268U 22086AC  22348.52768707  .00002095  00000-0  14965-3 0  9997,2 53268  53.2172  96.5541 0001528  56.6514 303.4625 15.08848317 22753,6917.855,95.437,540.7769999999998,538.663,0.0
53268.0,STARLINK-4109,PAYLOAD,2022-12-14 20:36:48,15.0884062,0.0001564,53.2171,95.0673,53.9379,306.1758,-1.5133e-05,-5.29e-06,0.0,0 STARLINK-4109,1 53268U 22086AC  22348.85888974 -.00000529  00000-0 -15133-4 0  9993,2 53268  53.2171  95.0673 0001564  53.9379 306.1758 15.08840620 22803,6917.878000000002,95.438,540.825,538.6619999999998,0.0
53268.0,STARLINK-4109,PAYLOAD,2022-12-14 22:12:11,15.08841467,0.0001569,53.2172,94.7701,53.1312,306.9824,-1.0840999999999997e-05,-4.61e-06,0.0,0 STARLINK-4109,1 53268U 22086AC  22348.92512912 -.00000461  00000-0 -10841-4 0  9993,2 53268  53.2172  94.7701 0001569  53.1312 306.9824 15.08841467 22639,6917.876,95.437,540.826,538.655,0.0
53268.0,STARLINK-4109,PAYLOAD,2022-12-15 07:44:30,15.08832752,0.0001658,53.2182,92.9859,55.158,304.9568,-1.7073e-05,-5.6e-06,0.0,0 STARLINK-4109,1 53268U 22086AC  22349.32257977 -.00000560  00000-0 -17073-4 0  9999,2 53268  53.2182  92.9859 0001658  55.1580 304.9568 15.08832752 22698,6917.903,95.438,540.915,538.621,0.0
53268.0,STARLINK-4109,PAYLOAD,2022-12-15 12:30:39,15.08838567,0.0001696,53.2172,92.0941,55.7429,304.3723,5.9114e-05,6.53e-06,0.0,0 STARLINK-4109,1 53268U 22086AC  22349.52129332  .00000653  00000-0  59114-4 0  9997,2 53268  53.2172  92.0941 0001696  55.7429 304.3723 15.08838567 22901,6917.885,95.438,540.923,538.576,0.0
53268.0,STARLINK-4109,PAYLOAD,2022-12-15 14:06:02,15.08841205,0.0001725,53.2173,91.7966,53.8272,306.288,0.00010387,1.365e-05,0.0,0 STARLINK-4109,1 53268U 22086AC  22349.58753250  .00001365  00000-0  10387-3 0  9994,2 53268  53.2173  91.7966 0001725  53.8272 306.2880 15.08841205 22732,6917.877,95.437,540.935,538.548,0.0
53268.0,STARLINK-4109,PAYLOAD,2022-12-15 18:52:12,15.08839519,0.0001743,53.2171,90.9044,54.0225,306.0929,7.0843e-05,8.400000000000001e-06,0.0,0 STARLINK-4109,1 53268U 22086AC  22349.78625330  .00000840  00000-0  70843-4 0  9994,2 53268  53.2171  90.9044 0001743  54.0225 306.0929 15.08839519 22949,6917.882,95.438,540.953,538.5409999999998,0.0
53268.0,STARLINK-4109,PAYLOAD,2022-12-16 13:56:49,15.08843413,0.0001676999999999,53.217,87.3364,50.6026,309.5115,0.00023661,3.48e-05,0.0,0 STARLINK-4109,1 53268U 22086AC  22350.58113289  .00003480  00000-0  23661-3 0  9997,2 53268  53.2170  87.3364 0001677  50.6026 309.5115 15.08843413 23067,6917.87,95.437,540.895,538.575,0.0
53268.0,STARLINK-4109,PAYLOAD,2022-12-16 20:18:22,15.08836553,0.0001665,53.2169,86.1465,50.1912,309.9227,1.1052e-05,-1.12e-06,0.0,0 STARLINK-4109,1 53268U 22086AC  22350.84609412 -.00000112  00000-0  11052-4 0  9996,2 53268  53.2169  86.1465 0001665  50.1912 309.9227 15.08836553 22929,6917.891,95.438,540.908,538.604,0.0
53268.0,STARLINK-4109,PAYLOAD,2022-12-17 12:12:14,15.08827066,0.0001757,53.2175,83.1732,51.7714,308.3436,-2.2007e-05,-6.38e-06,0.0,0 STARLINK-4109,1 53268U 22086AC  22351.50850415 -.00000638  00000-0 -22007-4 0  9997,2 53268  53.2175  83.1732 0001757  51.7714 308.3436 15.08827066 23205,6917.92,95.438,541.0,538.569,0.0
53268.0,STARLINK-4109,PAYLOAD,2022-12-17 15:23:00,15.08829954,0.0001771999999999,53.2175,82.5784,51.0164,309.0986,6.1494000000000025e-06,-1.9e-06,0.0,0 STARLINK-4109,1 53268U 22086AC  22351.64098338 -.00000190  00000-0  61494-5 0  9996,2 53268  53.2175  82.5784 0001772  51.0164 309.0986 15.08829954 23222,6917.911,95.438,541.002,538.55,0.0
53268.0,STARLINK-4109,PAYLOAD,2022-12-18 12:03:02,15.08837846,0.0001785,53.2187,78.7133,51.9655,308.1498,1.7324000000000002e-05,-1.2e-07,0.0,0 STARLINK-4109,1 53268U 22086AC  22352.50210841 -.00000012  00000-0  17324-4 0  9992,2 53268  53.2187  78.7133 0001785  51.9655 308.1498 15.08837846 23359,6917.887,95.438,540.987,538.5169999999998,0.0
53268.0,STARLINK-4109,PAYLOAD,2022-12-18 16:49:11,15.08844343,0.0001789,53.2186,77.8212,52.2101,307.9053,4.8729e-05,4.88e-06,0.0,0 STARLINK-4109,1 53268U 22086AC  22352.70082380  .00000488  00000-0  48729-4 0  9998,2 53268  53.2186  77.8212 0001789  52.2101 307.9053 15.08844343 23208,6917.8669999999975,95.437,540.97,538.495,0.0
53268.0,STARLINK-4109,PAYLOAD,2022-12-18 23:10:44,15.08835384,0.0001807,53.2188,76.6319,50.5119,309.6033,6.1772e-05,6.95e-06,0.0,0 STARLINK-4109,1 53268U 22086AC  22352.96579068  .00000695  00000-0  61772-4 0  9993,2 53268  53.2188  76.6319 0001807  50.5119 309.6033 15.08835384 23242,6917.894,95.438,541.01,538.509,0.0
53268.0,STARLINK-4109,PAYLOAD,2022-12-19 15:04:35,15.08848586,0.0001788,53.2179,73.6581,54.1181,305.9977,0.00038344,5.821e-05,0.0,0 STARLINK-4109,1 53268U 22086AC  22353.62818776  .00005821  00000-0  38344-3 0  9993,2 53268  53.2179  73.6581 0001788  54.1181 305.9977 15.08848586 23522,6917.854,95.437,540.956,538.482,0.0
53268.0,STARLINK-4109,PAYLOAD,2022-12-20 11:44:36,15.0884298,0.0001689,53.2182,69.7928,58.9289,301.1869,0.00013627,1.882e-05,0.0,0 STARLINK-4109,1 53268U 22086AC  22354.48931167  .00001882  00000-0  13627-3 0  9998,2 53268  53.2182  69.7928 0001689  58.9289 301.1869 15.08842980 23472,6917.871,95.437,540.905,538.568,0.0
53268.0,STARLINK-4109,PAYLOAD,2022-12-21 05:13:51,15.08830071,0.0001520999999999,53.2179,66.5221,61.3077,298.8068,-7.94e-06,-4.14e-06,0.0,0 STARLINK-4109,1 53268U 22086AC  22355.21796043 -.00000414  00000-0 -79400-5 0  9997,2 53268  53.2179  66.5221 0001521  61.3077 298.8068 15.08830071 23580,6917.911,95.438,540.828,538.724,0.0
53268.0,STARLINK-4109,PAYLOAD,2022-12-21 11:35:24,15.08834193,0.0001574,53.2178,65.3325,60.0663,300.0485,-3.6322e-05,-8.66e-06,0.0,0 STARLINK-4109,1 53268U 22086AC  22355.48291886 -.00000866  00000-0 -36322-4 0  9997,2 53268  53.2178  65.3325 0001574  60.0663 300.0485 15.08834193 23809,6917.898,95.438,540.852,538.674,0.0
53268.0,STARLINK-4109,PAYLOAD,2022-12-22 11:26:11,15.08845799,0.0001516,53.2182,60.8726,64.8546,295.2603,0.00038338,5.820000000000001e-05,0.0,0 STARLINK-4109,1 53268U 22086AC  22356.47651957  .00005820  00000-0  38338-3 0  9997,2 53268  53.2182  60.8726 0001516  64.8546 295.2603 15.08845799 23774,6917.863,95.437,540.776,538.679,0.0
53268.0,STARLINK-4109,PAYLOAD,2022-12-22 16:12:20,15.08852369,0.0001515,53.2182,59.9803,66.7385,293.3767,0.00052519,8.083e-05,0.0,0 STARLINK-4109,1 53268U 22086AC  22356.67523760  .00008083  00000-0  52519-3 0  9990,2 53268  53.2182  59.9803 0001515  66.7385 293.3767 15.08852369 23984,6917.843000000003,95.437,540.756,538.66,0.0
53268.0,STARLINK-4109,PAYLOAD,2022-12-23 12:52:20,15.08845916,0.0001665,53.2182,56.1151,70.2103,289.9069,-1.505e-05,-5.28e-06,0.0,0 STARLINK-4109,1 53268U 22086AC  22357.53635397 -.00000528  00000-0 -15050-4 0  9994,2 53268  53.2182  56.1151 0001665  70.2103 289.9069 15.08845916 23934,6917.861999999999,95.437,540.879,538.575,0.0
53268.0,STARLINK-4109,PAYLOAD,2022-12-23 16:03:07,15.08848783,0.000153,53.2181,55.5202,67.5496,292.5658,6.6072e-05,7.64e-06,0.0,0 STARLINK-4109,1 53268U 22086AC  22357.66883256  .00000764  00000-0  66072-4 0  9997,2 53268  53.2181  55.5202 0001530  67.5496 292.5658 15.08848783 24130,6917.854,95.437,540.7769999999998,538.66,0.0
53268.0,STARLINK-4109,PAYLOAD,2022-12-24 15:53:53,15.08839933,2.89e-05,53.2177,51.06,128.1992,231.9026,-0.00028477,-4.817e-05,0.0,0 STARLINK-4109,1 53268U 22086AC  22358.66242065 -.00004817  00000-0 -28477-3 0  9996,2 53268  53.2177  51.0600 0000289 128.1992 231.9026 15.08839933 24103,6917.880999999999,95.438,539.946,539.5459999999998,0.0
53268.0,STARLINK-4109,PAYLOAD,2022-12-25 07:47:45,15.08841089,0.0001798,53.2183,48.0883,55.315,304.8012,1.3774e-07,-2.86e-06,0.0,0 STARLINK-4109,1 53268U 22086AC  22359.32482958 -.00000286  00000-0  13774-6 0  9999,2 53268  53.2183  48.0883 0001798  55.3150 304.8012 15.08841089 24382,6917.877,95.437,540.986,538.498,0.0
53268.0,STARLINK-4109,PAYLOAD,2022-12-25 20:30:50,15.08836786,0.0001515,53.2182,45.7071,66.5062,293.6090000000001,1.8818e-05,1.1e-07,0.0,0 STARLINK-4109,1 53268U 22086AC  22359.85475188  .00000011  00000-0  18818-4 0  9991,2 53268  53.2182  45.7071 0001515  66.5062 293.6090 15.08836786 24465,6917.89,95.438,540.803,538.707,0.0
